0 SPACENET 2
1 15385U 84114A   13279.61775986 -.00000238  00000-0  10000-3 0  5276
2 15385 013.3034 035.4220 0005256 341.7758 018.2099 00.99764871 80724
0 SPACENET 2
1 15385U 84114A   13281.62237247 -.00000268  00000-0  10000-3 0  5287
2 15385 013.3063 035.3983 0005291 341.8284 018.1535 00.99764660 80747
0 SPACENET 2
1 15385U 84114A   13283.62700712 -.00000296  00000-0  10000-3 0  5293
2 15385 013.3093 035.3747 0005294 341.9116 018.0713 00.99764309 80765
0 SPACENET 2
1 15385U 84114A   13283.62701024  .00000000  00000-0  10000-3 0  5304
2 15385 013.3109 035.3738 0005398 323.8485 036.1201 00.99760156 80765
0 SPACENET 2
1 15385U 84114A   13285.63164494 -.00000320  00000-0  10000-3 0  5307
2 15385 013.3123 035.3509 0005221 339.4898 020.4895 00.99763832 80784
0 SPACENET 2
1 15385U 84114A   13287.63627937 -.00000339  00000-0  10000-3 0  5316
2 15385 013.3156 035.3271 0005207 335.0891 024.8782 00.99763221 80803
0 SPACENET 2
1 15385U 84114A   13289.64090649 -.00000351  00000-0  10000-3 0  5328
2 15385 013.3188 035.3035 0005228 333.9249 026.0283 00.99762539 80826
0 SPACENET 2
1 15385U 84114A   13290.64324089  .00000000  00000-0  10000-3 0  5339
2 15385 013.3185 035.2912 0005527 359.5787 000.3968 00.99758664 80839
0 SPACENET 2
1 15385U 84114A   13291.64555208 -.00000359  00000-0  10000-3 0  5337
2 15385 013.3223 035.2794 0005171 330.0848 029.8541 00.99761772 80845
